
# Worst residual: 12.58 km
# MJD 60463.000000 (2024 Jun  2  0:00)
A116CgX = A116I21
1 79925U 24999ZZO 24154.49919926  .00000000  00000-0  00000-0 0 23952
2 79925 027.7795 359.7687 9049931 152.0702 269.4003 00.44214877    09

# Worst residual: 14.12 km
# MJD 60464.000000 (2024 Jun  3  0:00)
A116CgX = A116I21
1 79925U 24999ZZO 24155.49919926  .00000000  00000-0  00000-0 0 23953
2 79925 027.8043 359.6797 9046914 152.1848 068.5042 00.44221260    02

# Worst residual: 4.87 km
# MJD 60465.000000 (2024 Jun  4  0:00)
A116CgX = A116I21
1 79925U 24999ZZO 24156.49919926  .00000000  00000-0  00000-0 0 23954
2 79925 027.7678 359.6813 9051098 152.2131 227.6590 00.44234379    00

# Worst residual: 18.73 km
# MJD 60466.000000 (2024 Jun  5  0:00)
A116CgX = A116I21
1 79925U 24999ZZO 24157.49919926  .00000000  00000-0  00000-0 0 23955
2 79925 027.7925 359.6070 9047420 152.3113 026.8252 00.44267669    07

# Worst residual: 3.39 km
# MJD 60467.000000 (2024 Jun  6  0:00)
A116CgX = A116I21
1 79925U 24999ZZO 24158.49919926  .00000000  00000-0  00000-0 0 23956
2 79925 027.7669 359.5860 9052483 152.3698 185.8667 00.44225712    00

# Worst residual: 13.40 km
# MJD 60468.000000 (2024 Jun  7  0:00)
A116CgX = A116I21
1 79925U 24999ZZO 24159.49919926  .00000000  00000-0  00000-0 0 23957
2 79925 027.7934 359.5172 9050262 152.4791 344.9851 00.44245736    00

# Worst residual: 5.74 km
# MJD 60469.000000 (2024 Jun  8  0:00)
A116CgX = A116I21
1 79925U 24999ZZO 24160.49919926  .00000000  00000-0  00000-0 0 23959
2 79925 027.7761 359.4773 9053131 152.5554 144.0920 00.44220222    09

# Worst residual: 10.55 km
# MJD 60470.000000 (2024 Jun  9  0:00)
A116CgX = A116I21
1 79925U 24999ZZO 24161.49919926  .00000000  00000-0  00000-0 0 23950
2 79925 027.7962 359.4164 9050392 152.6417 303.2354 00.44198801    08

# Worst residual: 8.44 km
# MJD 60471.000000 (2024 Jun 10  0:00)
A116CgX = A116I21
1 79925U 24999ZZO 24162.49919926  .00000000  00000-0  00000-0 0 23951
2 79925 027.7941 359.3508 9051633 152.7592 102.3366 00.44213642    02

# Worst residual: 9.37 km
# MJD 60472.000000 (2024 Jun 11  0:00)
A116CgX = A116I21
1 79925U 24999ZZO 24163.49919926  .00000000  00000-0  00000-0 0 23952
2 79925 027.7747 359.3285 9050574 152.8130 261.5079 00.44206410    04

# Worst residual: 13.24 km
# MJD 60473.000000 (2024 Jun 12  0:00)
A116CgX = A116I21
1 79925U 24999ZZO 24164.49919926  .00000000  00000-0  00000-0 0 23953
2 79925 027.7980 359.2432 9050386 152.9488 060.6050 00.44193763    07

# Worst residual: 2.93 km
# MJD 60474.000000 (2024 Jun 13  0:00)
A116CgX = A116I21
1 79925U 24999ZZO 24165.49919926  .00000000  00000-0  00000-0 0 23954
2 79925 027.7668 359.2343 9052353 152.9825 219.7949 00.44216326    07

# Worst residual: 22.33 km
# MJD 60475.000000 (2024 Jun 14  0:00)
A116CgX = A116I21
1 79925U 24999ZZO 24166.49919926  .00000000  00000-0  00000-0 0 23955
2 79925 027.7915 359.1618 9051612 153.0917 018.9312 00.44203603    04

# Worst residual: 3.30 km
# MJD 60476.000000 (2024 Jun 15  0:00)
A116CgX = A116I21
1 79925U 24999ZZO 24167.49919926  .00000000  00000-0  00000-0 0 23956
2 79925 027.7699 359.1303 9053615 153.1565 178.0772 00.44217573    08

# Worst residual: 12.50 km
# MJD 60477.000000 (2024 Jun 16  0:00)
A116CgX = A116I21
1 79925U 24999ZZO 24168.49919926  .00000000  00000-0  00000-0 0 23957
2 79925 027.7997 359.0602 9052303 153.2594 337.1932 00.44224598    07

# Worst residual: 6.52 km
# MJD 60478.000000 (2024 Jun 17  0:00)
A116CgX = A116I21
1 79925U 24999ZZO 24169.49919926  .00000000  00000-0  00000-0 0 23958
2 79925 027.7808 359.0170 9054011 153.3472 136.3261 00.44219514    08

# Worst residual: 13.87 km
# MJD 60479.000000 (2024 Jun 18  0:00)
A116CgX = A116I21
1 79925U 24999ZZO 24170.49919926  .00000000  00000-0  00000-0 0 23950
2 79925 027.7847 358.9680 9052170 153.4316 295.4064 00.44222433    09

# Worst residual: 12.40 km
# MJD 60480.000000 (2024 Jun 19  0:00)
A116CgX = A116I21
1 79925U 24999ZZO 24171.49919926  .00000000  00000-0  00000-0 0 23951
2 79925 027.7976 358.8900 9053229 153.5457 094.5589 00.44229430    03

# Worst residual: 7.28 km
# MJD 60481.000000 (2024 Jun 20  0:00)
A116CgX = A116I21
1 79925U 24999ZZO 24172.49919926  .00000000  00000-0  00000-0 0 23952
2 79925 027.7683 358.8788 9052670 153.6006 253.6790 00.44223401    06

# Worst residual: 17.46 km
# MJD 60482.000000 (2024 Jun 21  0:00)
A116CgX = A116I21
1 79925U 24999ZZO 24173.49919926  .00000000  00000-0  00000-0 0 23953
2 79925 027.7916 358.7972 9050227 153.7137 052.8185 00.44231457    08

# Worst residual: 4.77 km
# MJD 60483.000000 (2024 Jun 22  0:00)
A116CgX = A116I21
1 79925U 24999ZZO 24174.49919926  .00000000  00000-0  00000-0 0 23954
2 79925 027.7579 358.7889 9054162 153.7490 211.9367 00.44229089    02

# Worst residual: 15.50 km
# MJD 60484.000000 (2024 Jun 23  0:00)
A116CgX = A116I21
1 79925U 24999ZZO 24175.49919926  .00000000  00000-0  00000-0 0 23955
2 79925 027.7817 358.7191 9052583 153.8547 011.1230 00.44231188    04

# Worst residual: 8.38 km
# MJD 60485.000000 (2024 Jun 24  0:00)
A116CgX = A116I21
1 79925U 24999ZZO 24176.49919926  .00000000  00000-0  00000-0 0 23956
2 79925 027.7528 358.6956 9057987 153.9100 170.1099 00.44203754    07

# Worst residual: 21.71 km
# MJD 60486.000000 (2024 Jun 25  0:00)
A116CgX = A116I21
1 79925U 24999ZZO 24177.49919926  .00000000  00000-0  00000-0 0 23957
2 79925 027.7750 358.6291 9061051 154.0333 329.2137 00.44209921    05

# Worst residual: 9.21 km
# MJD 60487.000000 (2024 Jun 26  0:00)
A116CgX = A116I21
1 79925U 24999ZZO 24178.49919926  .00000000  00000-0  00000-0 0 23958
2 79925 027.7543 358.5869 9060950 154.1533 128.2611 00.44190218    07

# Worst residual: 11.37 km
# MJD 60488.000000 (2024 Jun 27  0:00)
A116CgX = A116I21
1 79925U 24999ZZO 24179.49919926  .00000000  00000-0  00000-0 0 23959
2 79925 027.7422 358.5539 9058115 154.2434 287.0968 00.44185605    01

# Worst residual: 15.78 km
# MJD 60489.000000 (2024 Jun 28  0:00)
A116CgX = A116I21
1 79925U 24999ZZO 24180.49919926  .00000000  00000-0  00000-0 0 23951
2 79925 027.7554 358.4659 9057520 154.4091 086.1768 00.44211470    05

# Worst residual: 9.01 km
# MJD 60490.000000 (2024 Jun 29  0:00)
A116CgX = A116I21
1 79925U 24999ZZO 24181.49919926  .00000000  00000-0  00000-0 0 23952
2 79925 027.7139 358.4689 9055036 154.4475 245.3238 00.44211569    03

# Worst residual: 13.97 km
# MJD 60491.000000 (2024 Jun 30  0:00)
A116CgX = A116I21
1 79925U 24999ZZO 24182.49919926  .00000000  00000-0  00000-0 0 23953
2 79925 027.7318 358.3926 9051425 154.5516 044.4146 00.44226154    02

# Worst residual: 1.83 km
# MJD 60492.000000 (2024 Jul  1  0:00)
A116CgX = A116I21
1 79925U 24999ZZO 24183.49919926  .00000000  00000-0  00000-0 0 23954
2 79925 027.7026 358.3740 9055074 154.6008 203.5646 00.44231313    09

# Worst residual: 14.34 km
# MJD 60493.000000 (2024 Jul  2  0:00)
A116CgX = A116I21
1 79925U 24999ZZO 24184.49919926  .00000000  00000-0  00000-0 0 23955
2 79925 027.7246 358.3059 9051559 154.7016 002.7059 00.44273224    04
